CCSDS_OMM_VERS = 2.0
CREATION_DATE  = 
ORIGINATOR     = 

OBJECT_NAME    = SL-16 R/B
OBJECT_ID      = 1993-016B
CENTER_NAME    = EARTH
REF_FRAME      = TEME
TIME_SYSTEM    = UTC
MEAN_ELEMENT_THEORY = SGP/SGP4

EPOCH          = 2026-03-02T20:29:08.813472
MEAN_MOTION    = 14.15304662
ECCENTRICITY   = .00113097
INCLINATION    = 71.0056
RA_OF_ASC_NODE = 229.5391
ARG_OF_PERICENTER = 323.6860
MEAN_ANOMALY   = 36.3494

EPHEMERIS_TYPE = 0
CLASSIFICATION_TYPE = U
NORAD_CAT_ID   = 22566
ELEMENT_SET_NO = 999
REV_AT_EPOCH   = 70120
BSTAR          = .19676788E-3
MEAN_MOTION_DOT = .336E-5
MEAN_MOTION_DDOT = 0

CCSDS_OMM_VERS = 2.0
CREATION_DATE  = 
ORIGINATOR     = 

OBJECT_NAME    = COSMOS 2242
OBJECT_ID      = 1993-024A
CENTER_NAME    = EARTH
REF_FRAME      = TEME
TIME_SYSTEM    = UTC
MEAN_ELEMENT_THEORY = SGP/SGP4

EPOCH          = 2026-03-02T22:47:28.733568
MEAN_MOTION    = 14.96515773
ECCENTRICITY   = .00157025
INCLINATION    = 82.5159
RA_OF_ASC_NODE = 273.1650
ARG_OF_PERICENTER = 333.0197
MEAN_ANOMALY   = 27.0207

EPHEMERIS_TYPE = 0
CLASSIFICATION_TYPE = U
NORAD_CAT_ID   = 22626
ELEMENT_SET_NO = 999
REV_AT_EPOCH   = 77938
BSTAR          = .18533174E-3
MEAN_MOTION_DOT = .2136E-4
MEAN_MOTION_DDOT = 0

CCSDS_OMM_VERS = 2.0
CREATION_DATE  = 
ORIGINATOR     = 

OBJECT_NAME    = SL-16 R/B
OBJECT_ID      = 1993-059B
CENTER_NAME    = EARTH
REF_FRAME      = TEME
TIME_SYSTEM    = UTC
MEAN_ELEMENT_THEORY = SGP/SGP4

EPOCH          = 2026-03-02T21:54:30.322080
MEAN_MOTION    = 14.17231990
ECCENTRICITY   = .00188232
INCLINATION    = 70.9918
RA_OF_ASC_NODE = 25.4162
ARG_OF_PERICENTER = 226.0978
MEAN_ANOMALY   = 133.8593

EPHEMERIS_TYPE = 0
CLASSIFICATION_TYPE = U
NORAD_CAT_ID   = 22803
ELEMENT_SET_NO = 999
REV_AT_EPOCH   = 67857
BSTAR          = .56964744E-4
MEAN_MOTION_DOT = .67E-6
MEAN_MOTION_DDOT = 0

CCSDS_OMM_VERS = 2.0
CREATION_DATE  = 
ORIGINATOR     = 

OBJECT_NAME    = ARIANE 40 R/B
OBJECT_ID      = 1993-061H
CENTER_NAME    = EARTH
REF_FRAME      = TEME
TIME_SYSTEM    = UTC
MEAN_ELEMENT_THEORY = SGP/SGP4

EPOCH          = 2026-03-02T18:50:53.948832
MEAN_MOTION    = 14.32856652
ECCENTRICITY   = .00096737
INCLINATION    = 98.4932
RA_OF_ASC_NODE = 130.8090
ARG_OF_PERICENTER = 307.9331
MEAN_ANOMALY   = 52.0979

EPHEMERIS_TYPE = 0
CLASSIFICATION_TYPE = U
NORAD_CAT_ID   = 22830
ELEMENT_SET_NO = 999
REV_AT_EPOCH   = 69311
BSTAR          = .10738734E-3
MEAN_MOTION_DOT = .25E-5
MEAN_MOTION_DDOT = 0

CCSDS_OMM_VERS = 2.0
CREATION_DATE  = 
ORIGINATOR     = 

OBJECT_NAME    = COSMOS 2278
OBJECT_ID      = 1994-023A
CENTER_NAME    = EARTH
REF_FRAME      = TEME
TIME_SYSTEM    = UTC
MEAN_ELEMENT_THEORY = SGP/SGP4

EPOCH          = 2026-03-02T19:23:51.987840
MEAN_MOTION    = 14.14374940
ECCENTRICITY   = .00076141
INCLINATION    = 71.0540
RA_OF_ASC_NODE = 189.4927
ARG_OF_PERICENTER = 27.3073
MEAN_ANOMALY   = 332.8449

EPHEMERIS_TYPE = 0
CLASSIFICATION_TYPE = U
NORAD_CAT_ID   = 23087
ELEMENT_SET_NO = 999
REV_AT_EPOCH   = 64383
BSTAR          = .19661451E-3
MEAN_MOTION_DOT = .329E-5
MEAN_MOTION_DDOT = 0

CCSDS_OMM_VERS = 2.0
CREATION_DATE  = 
ORIGINATOR     = 

OBJECT_NAME    = SL-16 R/B
OBJECT_ID      = 1994-023B
CENTER_NAME    = EARTH
REF_FRAME      = TEME
TIME_SYSTEM    = UTC
MEAN_ELEMENT_THEORY = SGP/SGP4

EPOCH          = 2026-03-02T12:06:15.217056
MEAN_MOTION    = 14.15013490
ECCENTRICITY   = .00055626
INCLINATION    = 70.9986
RA_OF_ASC_NODE = 85.9784
ARG_OF_PERICENTER = 292.6207
MEAN_ANOMALY   = 67.4327

EPHEMERIS_TYPE = 0
CLASSIFICATION_TYPE = U
NORAD_CAT_ID   = 23088
ELEMENT_SET_NO = 999
REV_AT_EPOCH   = 64507
BSTAR          = -.8193883E-5
MEAN_MOTION_DOT = -.64E-6
MEAN_MOTION_DDOT = 0

CCSDS_OMM_VERS = 2.0
CREATION_DATE  = 
ORIGINATOR     = 

OBJECT_NAME    = SL-16 R/B
OBJECT_ID      = 1994-074B
CENTER_NAME    = EARTH
REF_FRAME      = TEME
TIME_SYSTEM    = UTC
MEAN_ELEMENT_THEORY = SGP/SGP4

EPOCH          = 2026-03-02T23:06:45.024768
MEAN_MOTION    = 14.79398546
ECCENTRICITY   = .00053503
INCLINATION    = 97.7118
RA_OF_ASC_NODE = 93.0531
ARG_OF_PERICENTER = 236.3651
MEAN_ANOMALY   = 189.3663

EPHEMERIS_TYPE = 0
CLASSIFICATION_TYPE = U
NORAD_CAT_ID   = 23343
ELEMENT_SET_NO = 999
REV_AT_EPOCH   = 68625
BSTAR          = .85186599E-4
MEAN_MOTION_DOT = .586E-5
MEAN_MOTION_DDOT = 0

CCSDS_OMM_VERS = 2.0
CREATION_DATE  = 
ORIGINATOR     = 

OBJECT_NAME    = SL-16 R/B
OBJECT_ID      = 1994-077B
CENTER_NAME    = EARTH
REF_FRAME      = TEME
TIME_SYSTEM    = UTC
MEAN_ELEMENT_THEORY = SGP/SGP4

EPOCH          = 2026-03-02T21:54:20.837088
MEAN_MOTION    = 14.15562511
ECCENTRICITY   = .00034715
INCLINATION    = 70.9851
RA_OF_ASC_NODE = 6.7448
ARG_OF_PERICENTER = 221.4825
MEAN_ANOMALY   = 138.6035

EPHEMERIS_TYPE = 0
CLASSIFICATION_TYPE = U
NORAD_CAT_ID   = 23405
ELEMENT_SET_NO = 999
REV_AT_EPOCH   = 61527
BSTAR          = -.10550048E-3
MEAN_MOTION_DOT = -.254E-5
MEAN_MOTION_DDOT = 0

CCSDS_OMM_VERS = 2.0
CREATION_DATE  = 
ORIGINATOR     = 

OBJECT_NAME    = ARIANE 40+ R/B
OBJECT_ID      = 1995-021B
CENTER_NAME    = EARTH
REF_FRAME      = TEME
TIME_SYSTEM    = UTC
MEAN_ELEMENT_THEORY = SGP/SGP4

EPOCH          = 2026-03-02T19:22:37.099776
MEAN_MOTION    = 14.39766516
ECCENTRICITY   = .00073568
INCLINATION    = 98.4512
RA_OF_ASC_NODE = 133.3829
ARG_OF_PERICENTER = 154.7497
MEAN_ANOMALY   = 316.2603

EPHEMERIS_TYPE = 0
CLASSIFICATION_TYPE = U
NORAD_CAT_ID   = 23561
ELEMENT_SET_NO = 999
REV_AT_EPOCH   = 61825
BSTAR          = .12729976E-3
MEAN_MOTION_DOT = .356E-5
MEAN_MOTION_DDOT = 0

CCSDS_OMM_VERS = 2.0
CREATION_DATE  = 
ORIGINATOR     = 

OBJECT_NAME    = SL-16 R/B
OBJECT_ID      = 1995-058B
CENTER_NAME    = EARTH
REF_FRAME      = TEME
TIME_SYSTEM    = UTC
MEAN_ELEMENT_THEORY = SGP/SGP4

EPOCH          = 2026-03-02T18:40:25.073472
MEAN_MOTION    = 14.15492688
ECCENTRICITY   = .00110394
INCLINATION    = 71.0209
RA_OF_ASC_NODE = 194.7644
ARG_OF_PERICENTER = 138.0048
MEAN_ANOMALY   = 222.1923

EPHEMERIS_TYPE = 0
CLASSIFICATION_TYPE = U
NORAD_CAT_ID   = 23705
ELEMENT_SET_NO = 999
REV_AT_EPOCH   = 56687
BSTAR          = -.12568173E-4
MEAN_MOTION_DOT = -.72E-6
MEAN_MOTION_DDOT = 0

CCSDS_OMM_VERS = 2.0
CREATION_DATE  = 
ORIGINATOR     = 

OBJECT_NAME    = SL-16 R/B
OBJECT_ID      = 1996-051B
CENTER_NAME    = EARTH
REF_FRAME      = TEME
TIME_SYSTEM    = UTC
MEAN_ELEMENT_THEORY = SGP/SGP4

EPOCH          = 2026-03-02T20:54:49.782528
MEAN_MOTION    = 14.12413544
ECCENTRICITY   = .00156917
INCLINATION    = 70.7594
RA_OF_ASC_NODE = 189.6692
ARG_OF_PERICENTER = 158.1002
MEAN_ANOMALY   = 202.0792

EPHEMERIS_TYPE = 0
CLASSIFICATION_TYPE = U
NORAD_CAT_ID   = 24298
ELEMENT_SET_NO = 999
REV_AT_EPOCH   = 52068
BSTAR          = .69136589E-4
MEAN_MOTION_DOT = .79E-6
MEAN_MOTION_DDOT = 0

CCSDS_OMM_VERS = 2.0
CREATION_DATE  = 
ORIGINATOR     = 

OBJECT_NAME    = ORBVIEW 2 (SEASTAR)
OBJECT_ID      = 1997-037A
CENTER_NAME    = EARTH
REF_FRAME      = TEME
TIME_SYSTEM    = UTC
MEAN_ELEMENT_THEORY = SGP/SGP4

EPOCH          = 2026-03-02T22:27:14.720256
MEAN_MOTION    = 14.35488813
ECCENTRICITY   = .00031859
INCLINATION    = 98.8554
RA_OF_ASC_NODE = 226.0688
ARG_OF_PERICENTER = 85.5692
MEAN_ANOMALY   = 274.5857

EPHEMERIS_TYPE = 0
CLASSIFICATION_TYPE = U
NORAD_CAT_ID   = 24883
ELEMENT_SET_NO = 999
REV_AT_EPOCH   = 50750
BSTAR          = .15404012E-3
MEAN_MOTION_DOT = .396E-5
MEAN_MOTION_DDOT = 0

